#aV2021  5 27  0  0  0.00000000     288 DD+AD WGS84 FIT  NGA
## 2159 345600.00000000   300.00000000 59361 0.0000000000000
+   31     1  2  3  4  5  6  7  8  9 10 12 13 14 15 16 17 18
+         19 20 21 22 23 24 25 26 27 28 29 30 31 32  0  0  0
+          0  0  0  0  0  0  0  0  0  0  0  0  0  0  0  0  0
+          0  0  0  0  0  0  0  0  0  0  0  0  0  0  0  0  0
+          0  0  0  0  0  0  0  0  0  0  0  0  0  0  0  0  0
++         2  2  2  2  2  2  2  2  2  2  2  2  2  2  2  2  2
++         2  2  2  2  2  2  2  2  2  2  2  2  2  2  0  0  0
++         0  0  0  0  0  0  0  0  0  0  0  0  0  0  0  0  0
++         0  0  0  0  0  0  0  0  0  0  0  0  0  0  0  0  0
++         0  0  0  0  0  0  0  0  0  0  0  0  0  0  0  0  0
%c cc cc ccc ccc cccc cccc cccc cccc ccccc ccccc ccccc ccccc
%c cc cc ccc ccc cccc cccc cccc cccc ccccc ccccc ccccc ccccc
%f  0.0000000  0.000000000  0.00000000000  0.000000000000000
%f  0.0000000  0.000000000  0.00000000000  0.000000000000000
%i    0    0    0    0      0      0      0      0         0
%i    0    0    0    0      0      0      0      0         0
/*      NGA, ST. LOUIS,MO.                                  
/*   EPHEMERIS COMPUTED FROM 2 DAYS OF DATA                 
/*   EPOCHA v6 SMOOTHER                                     
/*   G2139 IERS2010 SATIGS SATAPC                           
*  2021  5 27 15 35  0.00000000
P  1  13566.238008 -18607.261865  12658.608193    676.725237                    
V  1  -2269.733519  16557.571741  26566.780745     -0.113979                    
P  2 -14075.092524  -5268.407650 -21246.885438   -607.664859                    
V  2   5252.978698 -28050.150960   3424.031045     -0.030673                    
P  3  21323.476706 -12732.802583  -9336.321564   -175.492134                    
V  3  11960.674618   -937.007759  28965.253796     -0.104303                    
P  4  11785.476862  -9697.780278 -21730.759816   -197.868369                    
V  4  19098.022824  19944.741683   1398.966340     -0.013801                    
P  5 -25781.453877   4481.636565  -5255.542737    -43.180976                    
V  5   5298.420144  -4558.457412 -30603.149136     -0.011237                    
P  6  -8138.255999 -17372.537776 -18286.691574     20.114783                    
V  6   6896.269467 -22289.200033  18105.646133      0.040952                    
P  7   6274.476634 -25526.429642    492.750640    162.457964                    
V  7   3474.450032    680.579657 -31876.640628      0.102871                    
P  8  18544.860966   -690.799706  19103.368144    -22.821835                    
V  8  16877.242487  17326.379831 -15448.329349     -0.014531                    
P  9    989.822929 -18062.516220 -19499.754118   -347.939265                    
V  9  18923.268558  15879.365272 -13812.222605     -0.021459                    
P 10   7078.407938  13565.165723  21847.174883   -130.402930                    
V 10 -26296.175041   7737.005338   3474.077004     -0.076161                    
P 12 -23090.129509  10401.879264  -8016.914445    -46.820368                    
V 12 -10121.807092   -234.811964  29924.675851     -0.051846                    
P 13 -20102.460568  -8887.253124  14875.993857    137.303564                    
V 13 -10369.573516 -16092.932738 -23285.375679      0.047787                    
P 14  -6072.520366 -14193.691757  21606.495180     79.606053                    
V 14  26656.215199  -6623.401479   3107.367586     -0.060643                    
P 15 -18645.298538   3088.487339  18427.750179   -146.502686                    
V 15 -18100.763784 -16086.163889 -14967.093932      0.026154                    
P 16  25155.382298   1665.203617  -9311.779976   -331.851172                    
V 16 -10789.939521   3851.135270 -28791.221008     -0.059897                    
P 17 -11615.133638 -22097.218650   9487.443476    449.072397                    
V 17   9067.989440   7176.122912  29130.568668      0.061097                    
P 18  -4583.700878  25881.987718   3543.057698    349.153141                    
V 18  -3708.561920   3665.651531 -31544.406252     -0.012893                    
P 19 -17123.048696 -20388.992425   -123.267973      5.553050                    
V 19   1732.369911  -1195.974176  32103.873950      0.049918                    
P 20 -24244.130099  10377.901748   -676.962603    521.765044                    
V 20   -791.131923  -3817.556928 -31435.332367     -0.003759                    
P 21  15499.511172 -11135.826443  18974.043872    121.037462                    
V 21  -2361.848007  22759.613003  16373.947695      0.025975                    
P 22  24885.569465  -8916.649422   1176.593278   -603.686267                    
V 22    201.663599   3998.950790  31251.443498      0.096997                    
P 23  -5820.103015  16391.251509  20037.742456    102.936012                    
V 23 -24653.191063   6577.096468 -12576.987127     -0.036017                    
P 24 -14757.269517  14399.778181  16276.161552    101.884773                    
V 24   1144.986825 -21495.474758  20151.022466      0.206909                    
P 25 -12843.355654  16016.864495 -16963.839364    144.985920                    
V 25 -20836.317629   4052.482051  20176.888587      0.069982                    
P 26  19532.018381   6502.523220 -16984.958250     90.761091                    
V 26 -19701.581685   8594.624802 -19162.663984      0.048937                    
P 27  21748.882378  10085.328282  11647.988619   -137.227757                    
V 27   9478.356324  11646.666623 -27003.669751     -0.064131                    
P 28 -12135.757944 -12130.557025  20774.600686    564.487040                    
V 28  24579.678265  -5452.862049  11664.827997     -0.062510                    
P 29  -2436.590495  17301.146477 -20038.932879   -354.178768                    
V 29 -17501.635322 -18275.651783 -13731.381520     -0.064127                    
P 30  -2846.382881 -23309.991661  12241.702840   -431.496268                    
V 30   7149.874251 -14193.058847 -25726.239184     -0.048455                    
P 31  10354.941285  14490.566528 -19641.198441   -119.676642                    
V 31  -8106.068424  23607.990641  13655.248573     -0.021697                    
P 32  14820.741878  21033.576380   7052.200396     20.293031                    
V 32  -8157.857555  -4155.597327  29851.211717     -0.009741                    
EOF
